start=new Date('2023-04-14T00:00:00.000Z').valueOf();
sats=[{"EPHEMERIS_TYPE":"0","ARG_OF_PERICENTER":"276.2880","MEAN_MOTION_DDOT":"0.0000000000000","TLE_LINE1":"1 55493U 23015AW  23103.08479786  .00009174  00000-0  69358-3 0  9990","RCS_SIZE":"LARGE","MEAN_MOTION":"15.02521827","PERIAPSIS":"558.131","BSTAR":"0.00069358000000","MEAN_ELEMENT_THEORY":"SGP4","CENTER_NAME":"EARTH","COUNTRY_CODE":"US","ELEMENT_SET_NO":"999","RA_OF_ASC_NODE":"347.2189","OBJECT_TYPE":"PAYLOAD","FILE":"3886731","PERIOD":"95.839","MEAN_MOTION_DOT":"0.00009174","INCLINATION":"43.0010","OBJECT_NAME":"STARLINK-5362","NORAD_CAT_ID":"55493","EPOCH":"2023-04-13T02:02:06.535104","CLASSIFICATION_TYPE":"U","SITE":"AFETR","LAUNCH_DATE":"2023-02-02","APOAPSIS":"560.119","ECCENTRICITY":"0.00014330","REF_FRAME":"TEME","TLE_LINE2":"2 55493  43.0010 347.2189 0001433 276.2880  83.7799 15.02521827 10911","OBJECT_ID":"2023-015AW","DECAY_DATE":null,"GP_ID":"230021336","REV_AT_EPOCH":"1091","SEMIMAJOR_AXIS":"6937.260","MEAN_ANOMALY":"83.7799","TIME_SYSTEM":"UTC"},{"ARG_OF_PERICENTER":"276.2310","EPHEMERIS_TYPE":"0","MEAN_MOTION_DDOT":"0.0000000000000","TLE_LINE1":"1 55494U 23015AX  23103.01275964  .00000245  00000-0  33235-4 0  9992","MEAN_MOTION":"15.02542563","RCS_SIZE":"LARGE","PERIAPSIS":"558.134","BSTAR":"0.00003323500000","MEAN_ELEMENT_THEORY":"SGP4","CENTER_NAME":"EARTH","COUNTRY_CODE":"US","ELEMENT_SET_NO":"999","RA_OF_ASC_NODE":"347.5364","OBJECT_TYPE":"PAYLOAD","FILE":"3886731","PERIOD":"95.838","MEAN_MOTION_DOT":"0.00000245","INCLINATION":"43.0030","OBJECT_NAME":"STARLINK-5344","NORAD_CAT_ID":"55494","EPOCH":"2023-04-13T00:18:22.432896","CLASSIFICATION_TYPE":"U","SITE":"AFETR","LAUNCH_DATE":"2023-02-02","APOAPSIS":"559.989","ECCENTRICITY":"0.00013370","REF_FRAME":"TEME","TLE_LINE2":"2 55494  43.0030 347.5364 0001337 276.2310  83.8380 15.02542563 10909","OBJECT_ID":"2023-015AX","DECAY_DATE":null,"GP_ID":"230020829","REV_AT_EPOCH":"1090","SEMIMAJOR_AXIS":"6937.196","MEAN_ANOMALY":"83.8380","TIME_SYSTEM":"UTC"},{"RCS_SIZE":"LARGE","TLE_LINE1":"1 55495U 23015AY  23103.83334491 -.00909788  00000-0 -15514-1 0  9993","MEAN_MOTION":"15.53264296","PERIAPSIS":"406.213","MEAN_MOTION_DDOT":"0.0000000000000","ARG_OF_PERICENTER":"273.0453","EPHEMERIS_TYPE":"0","OBJECT_TYPE":"PAYLOAD","FILE":"3886722","MEAN_MOTION_DOT":"-0.00909788","INCLINATION":"43.0002","PERIOD":"92.708","BSTAR":"-0.01551400000000","MEAN_ELEMENT_THEORY":"SGP4","ELEMENT_SET_NO":"999","RA_OF_ASC_NODE":"324.2127","CENTER_NAME":"EARTH","COUNTRY_CODE":"US","EPOCH":"2023-04-13T20:00:01.000224","NORAD_CAT_ID":"55495","SITE":"AFETR","LAUNCH_DATE":"2023-02-02","CLASSIFICATION_TYPE":"U","OBJECT_NAME":"STARLINK-5100","DECAY_DATE":null,"OBJECT_ID":"2023-015AY","TLE_LINE2":"2 55495  43.0002 324.2127 0001461 273.0453  91.7806 15.53264296 11057","MEAN_ANOMALY":"91.7806","TIME_SYSTEM":"UTC","REV_AT_EPOCH":"1105","GP_ID":"230020908","SEMIMAJOR_AXIS":"6785.340","APOAPSIS":"408.196","REF_FRAME":"TEME","ECCENTRICITY":"0.00014610"},{"CLASSIFICATION_TYPE":"U","SITE":"AFETR","LAUNCH_DATE":"2023-02-02","NORAD_CAT_ID":"55496","EPOCH":"2023-04-13T00:58:44.675040","OBJECT_NAME":"STARLINK-5139","SEMIMAJOR_AXIS":"6729.569","REV_AT_EPOCH":"1111","GP_ID":"230021399","TIME_SYSTEM":"UTC","MEAN_ANOMALY":"98.0930","OBJECT_ID":"2023-015AZ","TLE_LINE2":"2 55496  42.9992 329.4749 0007529 261.9084  98.0930 15.72613197 11112","DECAY_DATE":null,"ECCENTRICITY":"0.00075290","REF_FRAME":"TEME","APOAPSIS":"356.500","PERIAPSIS":"346.367","RCS_SIZE":"LARGE","TLE_LINE1":"1 55496U 23015AZ  23103.04079485  .00096878  00000-0  69459-3 0  9990","MEAN_MOTION":"15.72613197","EPHEMERIS_TYPE":"0","ARG_OF_PERICENTER":"261.9084","MEAN_MOTION_DDOT":"0.0000000000000","PERIOD":"91.567","INCLINATION":"42.9992","MEAN_MOTION_DOT":"0.00096878","FILE":"3886722","OBJECT_TYPE":"PAYLOAD","COUNTRY_CODE":"US","CENTER_NAME":"EARTH","RA_OF_ASC_NODE":"329.4749","ELEMENT_SET_NO":"999","MEAN_ELEMENT_THEORY":"SGP4","BSTAR":"0.00069459000000"},{"TLE_LINE2":"2 55497  43.0030 347.1578 0001376 271.2910  88.7775 15.02549487 10914","OBJECT_ID":"2023-015BA","DECAY_DATE":null,"REV_AT_EPOCH":"1091","GP_ID":"230021402","SEMIMAJOR_AXIS":"6937.175","MEAN_ANOMALY":"88.7775","TIME_SYSTEM":"UTC","APOAPSIS":"559.995","ECCENTRICITY":"0.00013760","REF_FRAME":"TEME","NORAD_CAT_ID":"55497","EPOCH":"2023-04-13T01:50:53.791872","CLASSIFICATION_TYPE":"U","SITE":"AFETR","LAUNCH_DATE":"2023-02-02","OBJECT_NAME":"STARLINK-5363","OBJECT_TYPE":"PAYLOAD","FILE":"3886722","PERIOD":"95.837","MEAN_MOTION_DOT":"-0.00000534","INCLINATION":"43.0030","BSTAR":"-0.00002442200000","MEAN_ELEMENT_THEORY":"SGP4","CENTER_NAME":"EARTH","COUNTRY_CODE":"US","ELEMENT_SET_NO":"999","RA_OF_ASC_NODE":"347.1578","TLE_LINE1":"1 55497U 23015BA  23103.07701148 -.00000534  00000-0 -24422-4 0  9990","MEAN_MOTION":"15.02549487","RCS_SIZE":"LARGE","PERIAPSIS":"558.085","EPHEMERIS_TYPE":"0","ARG_OF_PERICENTER":"271.2910","MEAN_MOTION_DDOT":"0.0000000000000"},{"MEAN_MOTION_DDOT":"0.0000000000000","ARG_OF_PERICENTER":"275.1157","EPHEMERIS_TYPE":"0","PERIAPSIS":"557.759","MEAN_MOTION":"15.02541719","TLE_LINE1":"1 55498U 23015BB  23103.06924837  .00006935  00000-0  52786-3 0  9994","RCS_SIZE":"LARGE","RA_OF_ASC_NODE":"347.1001","ELEMENT_SET_NO":"999","COUNTRY_CODE":"US","CENTER_NAME":"EARTH","MEAN_ELEMENT_THEORY":"SGP4","BSTAR":"0.00052786000000","INCLINATION":"43.0023","MEAN_MOTION_DOT":"0.00006935","PERIOD":"95.838","FILE":"3886564","OBJECT_TYPE":"PAYLOAD","OBJECT_NAME":"STARLINK-5365","LAUNCH_DATE":"2023-02-02","SITE":"AFETR","CLASSIFICATION_TYPE":"U","EPOCH":"2023-04-13T01:39:43.059168","NORAD_CAT_ID":"55498","REF_FRAME":"TEME","ECCENTRICITY":"0.00018810","APOAPSIS":"560.369","TIME_SYSTEM":"UTC","MEAN_ANOMALY":"84.9471","SEMIMAJOR_AXIS":"6937.199","REV_AT_EPOCH":"1091","GP_ID":"230015856","DECAY_DATE":null,"TLE_LINE2":"2 55498  43.0023 347.1001 0001881 275.1157  84.9471 15.02541719 10916","OBJECT_ID":"2023-015BB"},{"REF_FRAME":"TEME","ECCENTRICITY":"0.00015400","APOAPSIS":"560.138","MEAN_ANOMALY":"102.4989","TIME_SYSTEM":"UTC","REV_AT_EPOCH":"1167","GP_ID":"230017108","SEMIMAJOR_AXIS":"6937.205","DECAY_DATE":null,"OBJECT_ID":"2023-015BC","TLE_LINE2":"2 55499  43.0038 346.6948 0001540 257.5681 102.4989 15.02539867 11670","OBJECT_NAME":"STARLINK-5366","SITE":"AFETR","LAUNCH_DATE":"2023-02-02","CLASSIFICATION_TYPE":"U","EPOCH":"2023-04-13T03:07:27.037056","NORAD_CAT_ID":"55499","ELEMENT_SET_NO":"999","RA_OF_ASC_NODE":"346.6948","CENTER_NAME":"EARTH","COUNTRY_CODE":"US","BSTAR":"-0.00000854710000","MEAN_ELEMENT_THEORY":"SGP4","MEAN_MOTION_DOT":"-0.00000319","INCLINATION":"43.0038","PERIOD":"95.838","OBJECT_TYPE":"PAYLOAD","FILE":"3886564","MEAN_MOTION_DDOT":"0.0000000000000","ARG_OF_PERICENTER":"257.5681","EPHEMERIS_TYPE":"0","MEAN_MOTION":"15.02539867","TLE_LINE1":"1 55499U 23015BC  23103.13017404 -.00000319  00000-0 -85471-5 0  9997","RCS_SIZE":"LARGE","PERIAPSIS":"558.001"},{"APOAPSIS":"560.164","ECCENTRICITY":"0.00015570","REF_FRAME":"TEME","TLE_LINE2":"2 55500  43.0026 347.1421 0001557 277.8532  82.2134 15.02535333 10917","OBJECT_ID":"2023-015BD","DECAY_DATE":null,"GP_ID":"230016856","REV_AT_EPOCH":"1091","SEMIMAJOR_AXIS":"6937.219","MEAN_ANOMALY":"82.2134","TIME_SYSTEM":"UTC","OBJECT_NAME":"STARLINK-5141","NORAD_CAT_ID":"55500","EPOCH":"2023-04-13T01:47:42.729504","CLASSIFICATION_TYPE":"U","LAUNCH_DATE":"2023-02-02","SITE":"AFETR","BSTAR":"0.00015330000000","MEAN_ELEMENT_THEORY":"SGP4","CENTER_NAME":"EARTH","COUNTRY_CODE":"US","ELEMENT_SET_NO":"999","RA_OF_ASC_NODE":"347.1421","OBJECT_TYPE":"PAYLOAD","FILE":"3886564","PERIOD":"95.838","MEAN_MOTION_DOT":"0.00001868","INCLINATION":"43.0026","ARG_OF_PERICENTER":"277.8532","EPHEMERIS_TYPE":"0","MEAN_MOTION_DDOT":"0.0000000000000","MEAN_MOTION":"15.02535333","TLE_LINE1":"1 55500U 23015BD  23103.07480011  .00001868  00000-0  15330-3 0  9994","RCS_SIZE":"LARGE","PERIAPSIS":"558.003"},{"DECAY_DATE":null,"OBJECT_ID":"2023-015BE","TLE_LINE2":"2 55501  43.0048 347.0768 0002422 281.8049  78.2521 15.02514914 10912","TIME_SYSTEM":"UTC","MEAN_ANOMALY":"78.2521","SEMIMAJOR_AXIS":"6937.281","GP_ID":"230015606","REV_AT_EPOCH":"1091","APOAPSIS":"560.827","REF_FRAME":"TEME","ECCENTRICITY":"0.00024220","EPOCH":"2023-04-13T01:34:56.834976","NORAD_CAT_ID":"55501","LAUNCH_DATE":"2023-02-02","SITE":"AFETR","CLASSIFICATION_TYPE":"U","OBJECT_NAME":"STARLINK-5367","FILE":"3886564","OBJECT_TYPE":"PAYLOAD","INCLINATION":"43.0048","MEAN_MOTION_DOT":"0.00001024","PERIOD":"95.839","MEAN_ELEMENT_THEORY":"SGP4","BSTAR":"0.00009094100000","RA_OF_ASC_NODE":"347.0768","ELEMENT_SET_NO":"999","COUNTRY_CODE":"US","CENTER_NAME":"EARTH","PERIAPSIS":"557.466","MEAN_MOTION":"15.02514914","TLE_LINE1":"1 55501U 23015BE  23103.06593559  .00001024  00000-0  90941-4 0  9992","RCS_SIZE":"LARGE","MEAN_MOTION_DDOT":"0.0000000000000","ARG_OF_PERICENTER":"281.8049","EPHEMERIS_TYPE":"0"},{"OBJECT_ID":"2023-020A","TLE_LINE2":"2 55569  43.0027  13.7707 0001431 265.3392  94.7287 15.02536426 10284","DECAY_DATE":null,"GP_ID":"230016615","REV_AT_EPOCH":"1028","SEMIMAJOR_AXIS":"6937.215","MEAN_ANOMALY":"94.7287","TIME_SYSTEM":"UTC","APOAPSIS":"560.073","ECCENTRICITY":"0.00014310","REF_FRAME":"TEME","NORAD_CAT_ID":"55569","EPOCH":"2023-04-13T00:40:01.995168","CLASSIFICATION_TYPE":"U","LAUNCH_DATE":"2023-02-12","SITE":"AFETR","OBJECT_NAME":"STARLINK-5749","OBJECT_TYPE":"PAYLOAD","FILE":"3886564","PERIOD":"95.838","MEAN_MOTION_DOT":"0.00000310","INCLINATION":"43.0027","BSTAR":"0.00003803500000","MEAN_ELEMENT_THEORY":"SGP4","CENTER_NAME":"EARTH","COUNTRY_CODE":"US","ELEMENT_SET_NO":"999","RA_OF_ASC_NODE":"13.7707","RCS_SIZE":"LARGE","TLE_LINE1":"1 55569U 23020A   23103.02780087  .00000310  00000-0  38035-4 0  9995","MEAN_MOTION":"15.02536426","PERIAPSIS":"558.088","ARG_OF_PERICENTER":"265.3392","EPHEMERIS_TYPE":"0","MEAN_MOTION_DDOT":"0.0000000000000"}];
